SDO
1 36395U 10005A   10305.46302110 -.00000052  00000-0  00000+0 0  1672
2 36395 027.9647 185.0092 0002381 326.2622 314.0752 01.00274389  2834
OutputFile:SDO_MagEphem.txt
ISO Start Date/Time:2010-11-01T23:55:00
ISO End   Date/Time:2010-11-01T23:55:00
Cadence in seconds:300
Internal Field Model:IGRF
External Field Model:T89
Kp:4.3
Dst:-20
PitchAngles:0
